NORAD_CAT_ID,OBJECT_NAME,OBJECT_TYPE,EPOCH,MEAN_MOTION,ECCENTRICITY,INCLINATION,RA_OF_ASC_NODE,ARG_OF_PERICENTER,MEAN_ANOMALY,BSTAR,MEAN_MOTION_DOT,MEAN_MOTION_DDOT,TLE_LINE0,TLE_LINE1,TLE_LINE2,SEMIMAJOR_AXIS,PERIOD,APOGEE,PERIGEE,DECAYED
52269.0,STARLINK-3791,PAYLOAD,2024-06-21 01:29:56,15.08837647,0.0001338,53.2179,42.1649,85.6817,274.4328,-6.2502e-05,-1.282e-05,0.0,0 STARLINK-3791,1 52269U 22041J   24173.06245630 -.00001282  00000-0 -62502-4 0  9990,2 52269  53.2179  42.1649 0001338  85.6817 274.4328 15.08837647119762,6917.888,95.438,540.678,538.827,0.0
52269.0,STARLINK-3791,PAYLOAD,2024-06-21 20:34:33,15.08837734,0.0001374,53.2177,38.5969,88.3624,271.7525,8.2722e-05,1.029e-05,0.0,0 STARLINK-3791,1 52269U 22041J   24173.85733474  .00001029  00000-0  82722-4 0  9998,2 52269  53.2177  38.5969 0001374  88.3624 271.7525 15.08837734119889,6917.887,95.438,540.703,538.802,0.0
52269.0,STARLINK-3791,PAYLOAD,2024-06-22 20:25:21,15.08835539,0.0001283,53.2174,34.1358,84.8822,275.2316,9.9651e-05,1.298e-05,0.0,0 STARLINK-3791,1 52269U 22041J   24174.85093938  .00001298  00000-0  99651-4 0  9990,2 52269  53.2174  34.1358 0001283  84.8822 275.2316 15.08835539120037,6917.894,95.438,540.647,538.871,0.0
52269.0,STARLINK-3791,PAYLOAD,2024-06-23 20:16:07,15.08845171,0.0001424,53.218,29.6772,85.5513,274.5642,8.4805e-05,1.062e-05,0.0,0 STARLINK-3791,1 52269U 22041J   24175.84453436  .00001062  00000-0  84805-4 0  9997,2 52269  53.2180  29.6772 0001424  85.5513 274.5642 15.08845171121404,6917.865,95.437,540.715,538.744,0.0
52269.0,STARLINK-3791,PAYLOAD,2024-06-23 21:51:30,15.0884742,0.0001431,53.2178,29.379,78.7061,281.4092,0.00010564,1.394e-05,0.0,0 STARLINK-3791,1 52269U 22041J   24175.91077240  .00001394  00000-0  10564-3 0  9998,2 52269  53.2178  29.3790 0001431  78.7061 281.4092 15.08847420120198,6917.858,95.437,540.713,538.733,0.0
52269.0,STARLINK-3791,PAYLOAD,2024-06-23 23:26:53,15.08850023,0.0001531,53.2187,29.0792,88.2489,271.8679,0.00012328,1.675e-05,0.0,0 STARLINK-3791,1 52269U 22041J   24175.97700963  .00001675  00000-0  12328-3 0  9991,2 52269  53.2187  29.0792 0001531  88.2489 271.8679 15.08850023120207,6917.85,95.437,540.774,538.656,0.0
52269.0,STARLINK-3791,PAYLOAD,2024-06-24 21:42:17,15.08844263,0.0001547,53.2181,24.9137,76.2138,283.9026,7.2096e-05,8.6e-06,0.0,0 STARLINK-3791,1 52269U 22041J   24176.90437320  .00000860  00000-0  72096-4 0  9993,2 52269  53.2181  24.9137 0001547  76.2138 283.9026 15.08844263120347,6917.867,95.437,540.803,538.662,0.0
52269.0,STARLINK-3791,PAYLOAD,2024-06-25 21:33:04,15.08848501,0.0001768,53.2193,20.4537,70.3374,289.7809,5.3261e-06,-2.03e-06,0.0,0 STARLINK-3791,1 52269U 22041J   24177.89797131 -.00000203  00000-0  53261-5 0  9997,2 52269  53.2193  20.4537 0001768  70.3374 289.7809 15.08848501120495,6917.854,95.437,540.942,538.496,0.0
52269.0,STARLINK-3791,PAYLOAD,2024-06-27 19:39:15,15.08845673,0.0001162,53.2176,11.8339,91.612,268.5005,-1.5717e-05,-5.38e-06,0.0,0 STARLINK-3791,1 52269U 22041J   24179.81893379 -.00000538  00000-0 -15717-4 0  9997,2 52269  53.2176  11.8339 0001162  91.6120 268.5005 15.08845673122002,6917.863,95.437,540.532,538.924,0.0
52269.0,STARLINK-3791,PAYLOAD,2024-06-28 19:30:01,15.08860238,0.0001105,53.2166,7.3711,95.6276,264.4843,0.00023654,3.481e-05,0.0,0 STARLINK-3791,1 52269U 22041J   24180.81251933  .00003481  00000-0  23654-3 0  9999,2 52269  53.2166   7.3711 0001105  95.6276 264.4843 15.08860238122153,6917.819,95.436,540.448,538.919,0.0
52269.0,STARLINK-3791,PAYLOAD,2024-06-29 11:23:55,15.0883431,0.0001855,53.217,4.4011,78.0513,282.0687,9.8816e-06,-1.31e-06,0.0,0 STARLINK-3791,1 52269U 22041J   24181.47494278 -.00000131  00000-0  98816-5 0  9997,2 52269  53.2170   4.4011 0001855  78.0513 282.0687 15.08834310122255,6917.898,95.438,541.046,538.48,0.0
52269.0,STARLINK-3791,PAYLOAD,2024-06-29 19:20:51,15.0882517,0.0001104,53.2168,2.9151,88.3945,271.7174,-6.0518e-05,-1.25e-05,0.0,0 STARLINK-3791,1 52269U 22041J   24181.80615152 -.00001250  00000-0 -60518-4 0  9991,2 52269  53.2168   2.9151 0001104  88.3945 271.7174 15.08825170122306,6917.926,95.438,540.554,539.027,0.0
52269.0,STARLINK-3791,PAYLOAD,2024-06-30 04:53:09,15.08833901,0.0001241,53.2181,1.1302,85.2264,274.8869,1.603e-05,-3.3e-07,0.0,0 STARLINK-3791,1 52269U 22041J   24182.20358674 -.00000033  00000-0  16030-4 0  9996,2 52269  53.2181   1.1302 0001241  85.2264 274.8869 15.08833901122364,6917.899,95.438,540.623,538.906,0.0
52269.0,STARLINK-3791,PAYLOAD,2024-06-30 11:14:41,15.08841525,0.0001202,53.2175,359.9403,98.7655,261.3473,-0.00018047,-3.159e-05,0.0,0 STARLINK-3791,1 52269U 22041J   24182.46853997 -.00003159  00000-0 -18047-3 0  9994,2 52269  53.2175 359.9403 0001202  98.7655 261.3473 15.08841525122401,6917.876,95.437,540.572,538.909,0.0
52269.0,STARLINK-3791,PAYLOAD,2024-06-30 19:11:37,15.08839545,0.0001185,53.217,358.4535,81.9509,278.1617,0.00010074,1.316e-05,0.0,0 STARLINK-3791,1 52269U 22041J   24182.79974250  .00001316  00000-0  10074-3 0  9999,2 52269  53.2170 358.4535 0001185  81.9509 278.1617 15.08839545121233,6917.882,95.438,540.567,538.927,0.0
52269.0,STARLINK-3791,PAYLOAD,2024-07-01 04:43:56,15.08842474,0.0001149,53.2163,356.6686,76.4431,283.669,0.00046632,7.142e-05,0.0,0 STARLINK-3791,1 52269U 22041J   24183.19718562  .00007142  00000-0  46632-3 0  9998,2 52269  53.2163 356.6686 0001149  76.4431 283.6690 15.08842474121298,6917.873,95.437,540.533,538.943,0.0
52269.0,STARLINK-3791,PAYLOAD,2024-07-01 20:37:46,15.08891367,9.54e-05,53.2146,353.6916,73.0104,287.0992,0.0015616,0.00024687,0.0,0 STARLINK-3791,1 52269U 22041J   24183.85956778  .00024687  00000-0  15616-2 0  9994,2 52269  53.2146 353.6916 0000954  73.0104 287.0992 15.08891367122610,6917.723,95.434,540.248,538.928,0.0
52269.0,STARLINK-3791,PAYLOAD,2024-07-02 04:34:42,15.08858184,5.66e-05,53.2157,352.208,68.5348,291.5705,4.2489e-05,3.89e-06,0.0,0 STARLINK-3791,1 52269U 22041J   24184.19076586  .00000389  00000-0  42489-4 0  9995,2 52269  53.2157 352.2080 0000566  68.5348 291.5705 15.08858184122664,6917.825,95.436,540.081,539.298,0.0
52269.0,STARLINK-3791,PAYLOAD,2024-07-02 10:56:15,15.08856652,0.000241,53.2147,351.0171,82.1706,277.9559,0.00018483,2.656e-05,0.0,0 STARLINK-3791,1 52269U 22041J   24184.45573236  .00002656  00000-0  18483-3 0  9993,2 52269  53.2147 351.0171 0002410  82.1706 277.9559 15.08856652122709,6917.829,95.437,541.362,538.027,0.0
52269.0,STARLINK-3791,PAYLOAD,2024-07-02 20:28:33,15.08841227,9.38e-05,53.2146,349.2304,93.8081,266.3019,-6.1627e-05,-1.268e-05,0.0,0 STARLINK-3791,1 52269U 22041J   24184.85317039 -.00001268  00000-0 -61627-4 0  9993,2 52269  53.2146 349.2304 0000938  93.8081 266.3019 15.08841227122764,6917.877,95.437,540.391,539.093,0.0
52269.0,STARLINK-3791,PAYLOAD,2024-07-03 10:47:03,15.08823293,9.75e-05,53.214,346.5525,93.4364,266.6739,0.00027223,4.045e-05,0.0,0 STARLINK-3791,1 52269U 22041J   24185.44934242  .00004045  00000-0  27223-3 0  9997,2 52269  53.2140 346.5525 0000975  93.4364 266.6739 15.08823293122859,6917.931,95.439,540.471,539.122,0.0
52269.0,STARLINK-3791,PAYLOAD,2024-07-03 17:08:35,15.08830419,0.0001009,53.2135,345.3666,82.9099,277.2008,0.00049307,7.566e-05,0.0,0 STARLINK-3791,1 52269U 22041J   24185.71430378  .00007566  00000-0  49307-3 0  9996,2 52269  53.2135 345.3666 0001009  82.9099 277.2008 15.08830419121677,6917.91,95.438,540.473,539.077,0.0
52269.0,STARLINK-3791,PAYLOAD,2024-07-04 13:48:37,15.08836959,0.0001197,53.2158,341.5031,86.9502,273.1627,0.0004236,6.46e-05,0.0,0 STARLINK-3791,1 52269U 22041J   24186.57542924  .00006460  00000-0  42360-3 0  9996,2 52269  53.2158 341.5031 0001197  86.9502 273.1627 15.08836959121809,6917.89,95.438,540.583,538.927,0.0
52269.0,STARLINK-3791,PAYLOAD,2024-07-04 20:10:09,15.08847905,0.0001281,53.2174,340.312,95.2228,264.8911,0.00064468,9.989e-05,0.0,0 STARLINK-3791,1 52269U 22041J   24186.84038692  .00009989  00000-0  64468-3 0  9990,2 52269  53.2174 340.3120 0001281  95.2228 264.8911 15.08847905123061,6917.856,95.437,540.607,538.835,0.0
52269.0,STARLINK-3791,PAYLOAD,2024-07-05 13:39:23,15.08845117,0.0001172,53.217,337.0412,91.7826,268.33,0.00029956,4.483e-05,0.0,0 STARLINK-3791,1 52269U 22041J   24187.56902738  .00004483  00000-0  29956-3 0  9998,2 52269  53.2170 337.0412 0001172  91.7826 268.3300 15.08845117121958,6917.865,95.437,540.541,538.919,0.0
52269.0,STARLINK-3791,PAYLOAD,2024-07-05 20:00:56,15.08849562,0.0001082,53.2168,335.8502,92.8775,267.2341,0.00030732,4.608e-05,0.0,0 STARLINK-3791,1 52269U 22041J   24187.83398398  .00004608  00000-0  30732-3 0  9992,2 52269  53.2168 335.8502 0001082  92.8775 267.2341 15.08849562123218,6917.851,95.437,540.465,538.968,0.0
52269.0,STARLINK-3791,PAYLOAD,2024-07-06 13:30:11,15.08838749,0.0001491,53.2183,332.5829,108.8462,251.2692,6.3269e-06,-1.87e-06,0.0,0 STARLINK-3791,1 52269U 22041J   24188.56262814 -.00000187  00000-0  63269-5 0  9998,2 52269  53.2183 332.5829 0001491 108.8462 251.2692 15.08838749123325,6917.884,95.438,540.781,538.718,0.0
52269.0,STARLINK-3791,PAYLOAD,2024-07-06 19:51:43,15.08842432,0.0001309,53.2174,331.3888,94.0813,266.0329,6.6468e-05,7.7e-06,0.0,0 STARLINK-3791,1 52269U 22041J   24188.82758627  .00000770  00000-0  66468-4 0  9999,2 52269  53.2174 331.3888 0001309  94.0813 266.0329 15.08842432122145,6917.873,95.437,540.644,538.832,0.0
52269.0,STARLINK-3791,PAYLOAD,2024-07-07 08:34:48,15.08835398,0.0001227,53.2172,329.0108,94.3126,265.8007,-4.4841e-06,-3.59e-06,0.0,0 STARLINK-3791,1 52269U 22041J   24189.35751022 -.00000359  00000-0 -44841-5 0  9997,2 52269  53.2172 329.0108 0001227  94.3126 265.8007 15.08835398122223,6917.894,95.438,540.608,538.911,0.0
52269.0,STARLINK-3791,PAYLOAD,2024-07-07 19:42:30,15.08849986,0.0001285,53.2182,326.9315,105.6149,254.4985,0.0002762,4.112e-05,0.0,0 STARLINK-3791,1 52269U 22041J   24189.82118449  .00004112  00000-0  27620-3 0  9992,2 52269  53.2182 326.9315 0001285 105.6149 254.4985 15.08849986123515,6917.85,95.437,540.604,538.826,0.0
